{
  "schema": "int-telemetry-real-tle-snapshot/v1",
  "source": "celestrak",
  "group": "IRIDIUM-NEXT",
  "format": "celestrak-gp-json",
  "source_url": "https://celestrak.org/NORAD/elements/gp.php?GROUP=IRIDIUM-NEXT&FORMAT=JSON",
  "downloaded_at": "2026-07-07T06:33:54.787Z",
  "generated_at": "2026-07-07T06:33:56.153Z",
  "fingerprint": "75f53801",
  "shell_id": "iridium-next-real-86.4deg-785km",
  "catalog_count": 80,
  "shell_count": 67,
  "selected_count": 66,
  "mean_altitude_km": 784.8,
  "mean_inclination_deg": 86.3965,
  "mean_mean_motion_rev_per_day": 14.34218389,
  "layout": {
    "planes": 6,
    "satellites_per_plane": 11,
    "selection_strategy": "target-shell-raan-clusters-even-slot-sampling",
    "raan_cluster_threshold_deg": 6,
    "target_inclination_deg": 86.4,
    "target_altitude_km": 781,
    "selected_shell_key": "86.5deg-800km",
    "target_shell_distance": 4.16
  },
  "satellites": [
    {
      "satellite_id": "P03-S09",
      "norad_id": 43481,
      "satellite_name": "IRIDIUM 110",
      "cospar_id": "2018-047F",
      "shell_id": "iridium-next-real-86.4deg-785km",
      "plane_id": 2,
      "slot_id": 8,
      "epoch": "2026-07-06T17:16:02.116416",
      "inclination": 86.395,
      "raan": 80.26310000000001,
      "eccentricity": 0.0002313,
      "argument_of_perigee": 76.34090000000003,
      "mean_anomaly": 283.8044,
      "mean_motion": 14.34218959,
      "bstar": 0.000076782,
      "status": "active",
      "raw_omm": {
        "OBJECT_NAME": "IRIDIUM 110",
        "OBJECT_ID": "2018-047F",
        "EPOCH": "2026-07-06T17:16:02.116416",
        "MEAN_MOTION": 14.34218959,
        "ECCENTRICITY": 0.0002313,
        "INCLINATION": 86.395,
        "RA_OF_ASC_NODE": 80.2631,
        "ARG_OF_PERICENTER": 76.3409,
        "MEAN_ANOMALY": 283.8044,
        "EPHEMERIS_TYPE": 0,
        "CLASSIFICATION_TYPE": "U",
        "NORAD_CAT_ID": 43481,
        "ELEMENT_SET_NO": 999,
        "REV_AT_EPOCH": 42527,
        "BSTAR": 0.000076782,
        "MEAN_MOTION_DOT": 0.00000235,
        "MEAN_MOTION_DDOT": 0
      },
      "source": "celestrak",
      "source_url": "https://celestrak.org/NORAD/elements/gp.php?GROUP=IRIDIUM-NEXT&FORMAT=JSON",
      "catalog_fingerprint": "75f53801"
    },
    {
      "satellite_id": "P03-S10",
      "norad_id": 43480,
      "satellite_name": "IRIDIUM 147",
      "cospar_id": "2018-047E",
      "shell_id": "iridium-next-real-86.4deg-785km",
      "plane_id": 2,
      "slot_id": 9,
      "epoch": "2026-07-06T17:06:53.834976",
      "inclination": 86.3948,
      "raan": 80.17329999999998,
      "eccentricity": 0.0002281,
      "argument_of_perigee": 87.98079999999999,
      "mean_anomaly": 272.1649,
      "mean_motion": 14.34217455,
      "bstar": 0.000069817,
      "status": "active",
      "raw_omm": {
        "OBJECT_NAME": "IRIDIUM 147",
        "OBJECT_ID": "2018-047E",
        "EPOCH": "2026-07-06T17:06:53.834976",
        "MEAN_MOTION": 14.34217455,
        "ECCENTRICITY": 0.0002281,
        "INCLINATION": 86.3948,
        "RA_OF_ASC_NODE": 80.1733,
        "ARG_OF_PERICENTER": 87.9808,
        "MEAN_ANOMALY": 272.1649,
        "EPHEMERIS_TYPE": 0,
        "CLASSIFICATION_TYPE": "U",
        "NORAD_CAT_ID": 43480,
        "ELEMENT_SET_NO": 999,
        "REV_AT_EPOCH": 42528,
        "BSTAR": 0.000069817,
        "MEAN_MOTION_DOT": 0.00000215,
        "MEAN_MOTION_DDOT": 0
      },
      "source": "celestrak",
      "source_url": "https://celestrak.org/NORAD/elements/gp.php?GROUP=IRIDIUM-NEXT&FORMAT=JSON",
      "catalog_fingerprint": "75f53801"
    },
    {
      "satellite_id": "P03-S11",
      "norad_id": 43479,
      "satellite_name": "IRIDIUM 152",
      "cospar_id": "2018-047D",
      "shell_id": "iridium-next-real-86.4deg-785km",
      "plane_id": 2,
      "slot_id": 10,
      "epoch": "2026-07-06T20:18:43.003584",
      "inclination": 86.3947,
      "raan": 80.11220000000003,
      "eccentricity": 0.0002188,
      "argument_of_perigee": 81.9212,
      "mean_anomaly": 278.2232,
      "mean_motion": 14.34217891,
      "bstar": 0.000070645,
      "status": "active",
      "raw_omm": {
        "OBJECT_NAME": "IRIDIUM 152",
        "OBJECT_ID": "2018-047D",
        "EPOCH": "2026-07-06T20:18:43.003584",
        "MEAN_MOTION": 14.34217891,
        "ECCENTRICITY": 0.0002188,
        "INCLINATION": 86.3947,
        "RA_OF_ASC_NODE": 80.1122,
        "ARG_OF_PERICENTER": 81.9212,
        "MEAN_ANOMALY": 278.2232,
        "EPHEMERIS_TYPE": 0,
        "CLASSIFICATION_TYPE": "U",
        "NORAD_CAT_ID": 43479,
        "ELEMENT_SET_NO": 999,
        "REV_AT_EPOCH": 42530,
        "BSTAR": 0.000070645,
        "MEAN_MOTION_DOT": 0.00000218,
        "MEAN_MOTION_DDOT": 0
      },
      "source": "celestrak",
      "source_url": "https://celestrak.org/NORAD/elements/gp.php?GROUP=IRIDIUM-NEXT&FORMAT=JSON",
      "catalog_fingerprint": "75f53801"
    },
    {
      "satellite_id": "P04-S01",
      "norad_id": 43249,
      "satellite_name": "IRIDIUM 144",
      "cospar_id": "2018-030A",
      "shell_id": "iridium-next-real-86.4deg-785km",
      "plane_id": 3,
      "slot_id": 0,
      "epoch": "2026-07-06T16:42:15.382368",
      "inclination": 86.3964,
      "raan": 282.2436,
      "eccentricity": 0.0002299,
      "argument_of_perigee": 98.02449999999999,
      "mean_anomaly": 262.12110000000007,
      "mean_motion": 14.34218132,
      "bstar": 0.000028618,
      "status": "active",
      "raw_omm": {
        "OBJECT_NAME": "IRIDIUM 144",
        "OBJECT_ID": "2018-030A",
        "EPOCH": "2026-07-06T16:42:15.382368",
        "MEAN_MOTION": 14.34218132,
        "ECCENTRICITY": 0.0002299,
        "INCLINATION": 86.3964,
        "RA_OF_ASC_NODE": 282.2436,
        "ARG_OF_PERICENTER": 98.0245,
        "MEAN_ANOMALY": 262.1211,
        "EPHEMERIS_TYPE": 0,
        "CLASSIFICATION_TYPE": "U",
        "NORAD_CAT_ID": 43249,
        "ELEMENT_SET_NO": 999,
        "REV_AT_EPOCH": 43293,
        "BSTAR": 0.000028618,
        "MEAN_MOTION_DOT": 0.000001,
        "MEAN_MOTION_DDOT": 0
      },
      "source": "celestrak",
      "source_url": "https://celestrak.org/NORAD/elements/gp.php?GROUP=IRIDIUM-NEXT&FORMAT=JSON",
      "catalog_fingerprint": "75f53801"
    },
    {
      "satellite_id": "P04-S02",
      "norad_id": 43078,
      "satellite_name": "IRIDIUM 153",
      "cospar_id": "2017-083J",
      "shell_id": "iridium-next-real-86.4deg-785km",
      "plane_id": 3,
      "slot_id": 1,
      "epoch": "2026-07-06T16:33:07.297056",
      "inclination": 86.3964,
      "raan": 282.3175,
      "eccentricity": 0.0002113,
      "argument_of_perigee": 93.2382,
      "mean_anomaly": 266.90560000000005,
      "mean_motion": 14.34218731,
      "bstar": 0.000091792,
      "status": "active",
      "raw_omm": {
        "OBJECT_NAME": "IRIDIUM 153",
        "OBJECT_ID": "2017-083J",
        "EPOCH": "2026-07-06T16:33:07.297056",
        "MEAN_MOTION": 14.34218731,
        "ECCENTRICITY": 0.0002113,
        "INCLINATION": 86.3964,
        "RA_OF_ASC_NODE": 282.3175,
        "ARG_OF_PERICENTER": 93.2382,
        "MEAN_ANOMALY": 266.9056,
        "EPHEMERIS_TYPE": 0,
        "CLASSIFICATION_TYPE": "U",
        "NORAD_CAT_ID": 43078,
        "ELEMENT_SET_NO": 999,
        "REV_AT_EPOCH": 44807,
        "BSTAR": 0.000091792,
        "MEAN_MOTION_DOT": 0.00000277,
        "MEAN_MOTION_DDOT": 0
      },
      "source": "celestrak",
      "source_url": "https://celestrak.org/NORAD/elements/gp.php?GROUP=IRIDIUM-NEXT&FORMAT=JSON",
      "catalog_fingerprint": "75f53801"
    },
    {
      "satellite_id": "P04-S03",
      "norad_id": 43257,
      "satellite_name": "IRIDIUM 150",
      "cospar_id": "2018-030J",
      "shell_id": "iridium-next-real-86.4deg-785km",
      "plane_id": 3,
      "slot_id": 2,
      "epoch": "2026-07-06T16:23:59.297280",
      "inclination": 86.3964,
      "raan": 282.3148,
      "eccentricity": 0.0002222,
      "argument_of_perigee": 96.4536,
      "mean_anomaly": 263.69129999999996,
      "mean_motion": 14.34218642,
      "bstar": 0.000032293,
      "status": "active",
      "raw_omm": {
        "OBJECT_NAME": "IRIDIUM 150",
        "OBJECT_ID": "2018-030J",
        "EPOCH": "2026-07-06T16:23:59.297280",
        "MEAN_MOTION": 14.34218642,
        "ECCENTRICITY": 0.0002222,
        "INCLINATION": 86.3964,
        "RA_OF_ASC_NODE": 282.3148,
        "ARG_OF_PERICENTER": 96.4536,
        "MEAN_ANOMALY": 263.6913,
        "EPHEMERIS_TYPE": 0,
        "CLASSIFICATION_TYPE": "U",
        "NORAD_CAT_ID": 43257,
        "ELEMENT_SET_NO": 999,
        "REV_AT_EPOCH": 43295,
        "BSTAR": 0.000032293,
        "MEAN_MOTION_DOT": 0.0000011,
        "MEAN_MOTION_DDOT": 0
      },
      "source": "celestrak",
      "source_url": "https://celestrak.org/NORAD/elements/gp.php?GROUP=IRIDIUM-NEXT&FORMAT=JSON",
      "catalog_fingerprint": "75f53801"
    }
  ]
}